{"fetched_at":"2026-07-19T17:32:00.538Z","source":"https://celestrak.org/NORAD/elements/gp.php?NAME=TIGER&FORMAT=JSON","constellation":"oq-technology","records":[{"OBJECT_NAME":"TIGER-8","OBJECT_ID":"2024-043Y","EPOCH":"2026-07-19T03:35:22.437600","CLASSIFICATION_TYPE":"U","MEAN_MOTION":15.45210304,"ECCENTRICITY":0.00088978,"INCLINATION":97.5582,"RA_OF_ASC_NODE":350.0553,"ARG_OF_PERICENTER":91.1562,"MEAN_ANOMALY":269.0706,"EPHEMERIS_TYPE":0,"NORAD_CAT_ID":59120,"ELEMENT_SET_NO":999,"REV_AT_EPOCH":13272,"BSTAR":0.00011113366,"MEAN_MOTION_DOT":0.00005188,"MEAN_MOTION_DDOT":0},{"OBJECT_NAME":"TIGER-7","OBJECT_ID":"2024-043AV","EPOCH":"2026-07-18T23:30:16.270272","CLASSIFICATION_TYPE":"U","MEAN_MOTION":15.49399228,"ECCENTRICITY":0.00066972,"INCLINATION":97.5521,"RA_OF_ASC_NODE":352.4076,"ARG_OF_PERICENTER":66.3294,"MEAN_ANOMALY":293.8659,"EPHEMERIS_TYPE":0,"NORAD_CAT_ID":59141,"ELEMENT_SET_NO":999,"REV_AT_EPOCH":13289,"BSTAR":0.0001179938,"MEAN_MOTION_DOT":0.00006378,"MEAN_MOTION_DDOT":0}]}
