TIGER-8                 
1 59120U 24043Y   26200.14956525  .00005188  00000+0  11113-3 0  9998
2 59120  97.5582 350.0553 0008897  91.1562 269.0706 15.45210304132722
TIGER-7                 
1 59141U 24043AV  26199.97935498  .00006378  00000+0  11799-3 0  9997
2 59141  97.5521 352.4076 0006697  66.3294 293.8659 15.49399228132893
